{
  "type": "FeatureCollection",
  "features": [
    {
      "type": "Feature",
      "properties": {
        "norad_id": 30264,
        "name": "FENGYUN 1C DEB",
        "group": "fengyun-1c-debris",
        "lat": -23.731382950195954,
        "lon": 57.730906172047476,
        "alt_km": 861.3828289484827,
        "timestamp": "2025-12-24T16:52:41.807083+00:00",
        "meta_object_name": "FENGYUN 1C DEB",
        "meta_object_id": "1999-025XZ",
        "meta_epoch": "2025-12-22T10:28:44.483808",
        "meta_mean_motion": 14.07676846,
        "meta_eccentricity": 0.01079727,
        "meta_inclination": 98.9696,
        "meta_ra_of_asc_node": 51.4986,
        "meta_arg_of_pericenter": 260.1244,
        "meta_mean_anomaly": 114.5431,
        "meta_ephemeris_type": 0,
        "meta_classification_type": "U",
        "meta_norad_cat_id": 30264,
        "meta_element_set_no": 999,
        "meta_rev_at_epoch": 96694,
        "meta_bstar": 0.001164435,
        "meta_mean_motion_dot": 2.031e-05,
        "meta_mean_motion_ddot": 0,
        "tle_line1": "1 30264U 99025XZ  25356.43662597  .00002031  00000+0  11644-2 0  9996",
        "tle_line2": "2 30264  98.9696  51.4986 0107972 260.1244 114.5431 14.07676846966944"
      },
      "geometry": {
        "type": "Point",
        "coordinates": [
          57.730906172047476,
          -23.731382950195954
        ]
      }
    },
    {
      "type": "Feature",
      "properties": {
        "norad_id": 30265,
        "name": "FENGYUN 1C DEB",
        "group": "fengyun-1c-debris",
        "lat": 31.13894658590233,
        "lon": 103.05289623649213,
        "alt_km": 684.179512090841,
        "timestamp": "2025-12-24T16:52:41.807093+00:00",
        "meta_object_name": "FENGYUN 1C DEB",
        "meta_object_id": "1999-025YA",
        "meta_epoch": "2025-12-24T07:08:31.977312",
        "meta_mean_motion": 14.58836322,
        "meta_eccentricity": 0.00279912,
        "meta_inclination": 98.6636,
        "meta_ra_of_asc_node": 107.9155,
        "meta_arg_of_pericenter": 336.4672,
        "meta_mean_anomaly": 85.6435,
        "meta_ephemeris_type": 0,
        "meta_classification_type": "U",
        "meta_norad_cat_id": 30265,
        "meta_element_set_no": 999,
        "meta_rev_at_epoch": 98570,
        "meta_bstar": 0.0023514454,
        "meta_mean_motion_dot": 0.00011025,
        "meta_mean_motion_ddot": 0,
        "tle_line1": "1 30265U 99025YA  25358.29759233  .00011025  00000+0  23514-2 0  9999",
        "tle_line2": "2 30265  98.6636 107.9155 0027991 336.4672  85.6435 14.58836322985705"
      },
      "geometry": {
        "type": "Point",
        "coordinates": [
          103.05289623649213,
          31.13894658590233
        ]
      }
    },
    {
      "type": "Feature",
      "properties": {
        "norad_id": 30266,
        "name": "FENGYUN 1C DEB",
        "group": "fengyun-1c-debris",
        "lat": -31.620691022774956,
        "lon": 68.70175084185968,
        "alt_km": 821.3971146221002,
        "timestamp": "2025-12-24T16:52:41.807104+00:00",
        "meta_object_name": "FENGYUN 1C DEB",
        "meta_object_id": "1999-025YB",
        "meta_epoch": "2025-12-24T03:42:20.725056",
        "meta_mean_motion": 14.15133398,
        "meta_eccentricity": 0.0081805,
        "meta_inclination": 99.0415,
        "meta_ra_of_asc_node": 62.5195,
        "meta_arg_of_pericenter": 33.4269,
        "meta_mean_anomaly": 20.8699,
        "meta_ephemeris_type": 0,
        "meta_classification_type": "U",
        "meta_norad_cat_id": 30266,
        "meta_element_set_no": 999,
        "meta_rev_at_epoch": 96951,
        "meta_bstar": 0.0011616809,
        "meta_mean_motion_dot": 2.283e-05,
        "meta_mean_motion_ddot": 0,
        "tle_line1": "1 30266U 99025YB  25358.15440654  .00002283  00000+0  11617-2 0  9996",
        "tle_line2": "2 30266  99.0415  62.5195 0081805  33.4269  20.8699 14.15133398969516"
      },
      "geometry": {
        "type": "Point",
        "coordinates": [
          68.70175084185968,
          -31.620691022774956
        ]
      }
    },
    {
      "type": "Feature",
      "properties": {
        "norad_id": 30267,
        "name": "FENGYUN 1C DEB",
        "group": "fengyun-1c-debris",
        "lat": -68.54089018564154,
        "lon": -133.40925341725878,
        "alt_km": 787.5848748028766,
        "timestamp": "2025-12-24T16:52:41.807114+00:00",
        "meta_object_name": "FENGYUN 1C DEB",
        "meta_object_id": "1999-025YC",
        "meta_epoch": "2025-12-24T03:53:57.756192",
        "meta_mean_motion": 14.23680298,
        "meta_eccentricity": 0.00598999,
        "meta_inclination": 98.8488,
        "meta_ra_of_asc_node": 69.3939,
        "meta_arg_of_pericenter": 210.774,
        "meta_mean_anomaly": 148.9921,
        "meta_ephemeris_type": 0,
        "meta_classification_type": "U",
        "meta_norad_cat_id": 30267,
        "meta_element_set_no": 999,
        "meta_rev_at_epoch": 97457,
        "meta_bstar": 0.0015708078,
        "meta_mean_motion_dot": 3.607e-05,
        "meta_mean_motion_ddot": 0,
        "tle_line1": "1 30267U 99025YC  25358.16247403  .00003607  00000+0  15708-2 0  9991",
        "tle_line2": "2 30267  98.8488  69.3939 0059899 210.7740 148.9921 14.23680298974574"
      },
      "geometry": {
        "type": "Point",
        "coordinates": [
          -133.40925341725878,
          -68.54089018564154
        ]
      }
    },
    {
      "type": "Feature",
      "properties": {
        "norad_id": 30270,
        "name": "FENGYUN 1C DEB",
        "group": "fengyun-1c-debris",
        "lat": 65.09686833040922,
        "lon": -7.205096862314338,
        "alt_km": 845.8675641546024,
        "timestamp": "2025-12-24T16:52:41.807124+00:00",
        "meta_object_name": "FENGYUN 1C DEB",
        "meta_object_id": "1999-025YF",
        "meta_epoch": "2025-12-24T06:38:51.154944",
        "meta_mean_motion": 14.11276188,
        "meta_eccentricity": 0.00078806,
        "meta_inclination": 98.7018,
        "meta_ra_of_asc_node": 11.6437,
        "meta_arg_of_pericenter": 128.957,
        "meta_mean_anomaly": 293.1927,
        "meta_ephemeris_type": 0,
        "meta_classification_type": "U",
        "meta_norad_cat_id": 30270,
        "meta_element_set_no": 999,
        "meta_rev_at_epoch": 97524,
        "meta_bstar": 0.00013470409,
        "meta_mean_motion_dot": 2.01e-06,
        "meta_mean_motion_ddot": 0,
        "tle_line1": "1 30270U 99025YF  25358.27698096  .00000201  00000+0  13470-3 0  9997",
        "tle_line2": "2 30270  98.7018  11.6437 0007880 128.9570 293.1927 14.11276188975243"
      },
      "geometry": {
        "type": "Point",
        "coordinates": [
          -7.205096862314338,
          65.09686833040922
        ]
      }
    },
    {
      "type": "Feature",
      "properties": {
        "norad_id": 30272,
        "name": "FENGYUN 1C DEB",
        "group": "fengyun-1c-debris",
        "lat": 80.8114114089139,
        "lon": -9.272818515206692,
        "alt_km": 801.0009686630419,
        "timestamp": "2025-12-24T16:52:41.807135+00:00",
        "meta_object_name": "FENGYUN 1C DEB",
        "meta_object_id": "1999-025YH",
        "meta_epoch": "2025-12-22T15:14:43.570464",
        "meta_mean_motion": 14.1475229,
        "meta_eccentricity": 0.00503459,
        "meta_inclination": 98.9004,
        "meta_ra_of_asc_node": 64.2999,
        "meta_arg_of_pericenter": 76.0082,
        "meta_mean_anomaly": 284.6682,
        "meta_ephemeris_type": 0,
        "meta_classification_type": "U",
        "meta_norad_cat_id": 30272,
        "meta_element_set_no": 999,
        "meta_rev_at_epoch": 96996,
        "meta_bstar": 0.00096665706,
        "meta_mean_motion_dot": 1.841e-05,
        "meta_mean_motion_ddot": 0,
        "tle_line1": "1 30272U 99025YH  25356.63522651  .00001841  00000+0  96666-3 0  9999",
        "tle_line2": "2 30272  98.9004  64.2999 0050345  76.0082 284.6682 14.14752290969965"
      },
      "geometry": {
        "type": "Point",
        "coordinates": [
          -9.272818515206692,
          80.8114114089139
        ]
      }
    },
    {
      "type": "Feature",
      "properties": {
        "norad_id": 30273,
        "name": "FENGYUN 1C DEB",
        "group": "fengyun-1c-debris",
        "lat": -80.36185286625819,
        "lon": 126.52226723944074,
        "alt_km": 863.5964723273355,
        "timestamp": "2025-12-24T16:52:41.807145+00:00",
        "meta_object_name": "FENGYUN 1C DEB",
        "meta_object_id": "1999-025YJ",
        "meta_epoch": "2025-12-24T07:10:22.641024",
        "meta_mean_motion": 14.02674002,
        "meta_eccentricity": 0.00606436,
        "meta_inclination": 98.8394,
        "meta_ra_of_asc_node": 12.5223,
        "meta_arg_of_pericenter": 216.9389,
        "meta_mean_anomaly": 167.7911,
        "meta_ephemeris_type": 0,
        "meta_classification_type": "U",
        "meta_norad_cat_id": 30273,
        "meta_element_set_no": 999,
        "meta_rev_at_epoch": 96691,
        "meta_bstar": 0.00030138992,
        "meta_mean_motion_dot": 4.3e-06,
        "meta_mean_motion_ddot": 0,
        "tle_line1": "1 30273U 99025YJ  25358.29887316  .00000430  00000+0  30139-3 0  9992",
        "tle_line2": "2 30273  98.8394  12.5223 0060643 216.9389 167.7911 14.02674002966919"
      },
      "geometry": {
        "type": "Point",
        "coordinates": [
          126.52226723944074,
          -80.36185286625819
        ]
      }
    }
  ]
}